NORAD_CAT_ID,OBJECT_NAME,OBJECT_TYPE,EPOCH,MEAN_MOTION,ECCENTRICITY,INCLINATION,RA_OF_ASC_NODE,ARG_OF_PERICENTER,MEAN_ANOMALY,BSTAR,MEAN_MOTION_DOT,MEAN_MOTION_DDOT,TLE_LINE0,TLE_LINE1,TLE_LINE2,SEMIMAJOR_AXIS,PERIOD,APOGEE,PERIGEE,DECAYED
54803.0,STARLINK-5430,PAYLOAD,2024-02-03 21:10:39,15.08845328,0.0001352,53.2159,237.1393,86.338,273.7767,0.00010014,1.306e-05,0.0,0 STARLINK-5430,1 54803U 22175AX  24034.88239840  .00001306  00000-0  10014-3 0  9991,2 54803  53.2159 237.1393 0001352  86.3380 273.7767 15.08845328 64467,6917.864,95.437,540.664,538.794,0.0
54803.0,STARLINK-5430,PAYLOAD,2024-02-03 22:46:02,15.08846369,0.0001353,53.2159,236.8418,86.0956,274.0191,0.00010737,1.422e-05,0.0,0 STARLINK-5430,1 54803U 22175AX  24034.94863740  .00001422  00000-0  10737-3 0  9991,2 54803  53.2159 236.8418 0001353  86.0956 274.0191 15.08846369 62311,6917.861,95.437,540.662,538.79,0.0
54803.0,STARLINK-5430,PAYLOAD,2024-02-04 13:04:30,15.08841109,0.0001384,53.2155,234.1651,86.8635,273.2516,4.9153e-05,4.94e-06,0.0,0 STARLINK-5430,1 54803U 22175AX  24035.54480237  .00000494  00000-0  49153-4 0  9997,2 54803  53.2155 234.1651 0001384  86.8635 273.2516 15.08841109 64561,6917.877,95.437,540.699,538.785,0.0
54803.0,STARLINK-5430,PAYLOAD,2024-02-04 19:26:03,15.08841345,0.0001384,53.2156,232.9757,86.6694,273.4457,4.5911e-05,4.43e-06,0.0,0 STARLINK-5430,1 54803U 22175AX  24035.80976199  .00000443  00000-0  45911-4 0  9995,2 54803  53.2156 232.9757 0001384  86.6694 273.4457 15.08841345 62441,6917.876,95.437,540.699,538.784,0.0
54803.0,STARLINK-5430,PAYLOAD,2024-02-05 12:55:17,15.08845648,0.0001424,53.2157,229.7044,89.2948,270.8207,2.8706e-05,1.69e-06,0.0,0 STARLINK-5430,1 54803U 22175AX  24036.53839837  .00000169  00000-0  28706-4 0  9991,2 54803  53.2157 229.7044 0001424  89.2948 270.8207 15.08845648 64717,6917.863,95.437,540.713,538.743,0.0
54803.0,STARLINK-5430,PAYLOAD,2024-02-05 19:16:49,15.08846647,0.0001423,53.2157,228.515,88.7812,271.3343,3.5052e-05,2.7e-06,0.0,0 STARLINK-5430,1 54803U 22175AX  24036.80335639  .00000270  00000-0  35052-4 0  9997,2 54803  53.2157 228.5150 0001423  88.7812 271.3343 15.08846647 64756,6917.86,95.437,540.709,538.741,0.0
54803.0,STARLINK-5430,PAYLOAD,2024-02-06 12:46:04,15.08841424,0.0001398,53.2161,225.2448,84.7861,275.3291,4.8336e-05,4.81e-06,0.0,0 STARLINK-5430,1 54803U 22175AX  24037.53199808  .00000481  00000-0  48336-4 0  9997,2 54803  53.2161 225.2448 0001398  84.7861 275.3291 15.08841424 64862,6917.876,95.437,540.708,538.774,0.0
54803.0,STARLINK-5430,PAYLOAD,2024-02-06 19:07:37,15.08843143,0.0001329,53.2164,224.0552,87.4763,272.6381,5.26e-05,5.49e-06,0.0,0 STARLINK-5430,1 54803U 22175AX  24037.79695623  .00000549  00000-0  52600-4 0  9995,2 54803  53.2164 224.0552 0001329  87.4763 272.6381 15.08843143 62748,6917.871,95.437,540.655,538.816,0.0
54803.0,STARLINK-5430,PAYLOAD,2024-02-07 12:36:52,15.08831615,0.0001467,53.2163,220.7847,75.2924,284.823,-3.8953e-05,-9.08e-06,0.0,0 STARLINK-5430,1 54803U 22175AX  24038.52560989 -.00000908  00000-0 -38953-4 0  9999,2 54803  53.2163 220.7847 0001467  75.2924 284.8230 15.08831615 62855,6917.906,95.438,540.786,538.756,0.0
54803.0,STARLINK-5430,PAYLOAD,2024-02-07 18:58:25,15.08823886,0.0001302,53.2164,219.5948,85.1379,274.9762,-0.00010233,-1.915e-05,0.0,0 STARLINK-5430,1 54803U 22175AX  24038.79057782 -.00001915  00000-0 -10233-3 0  9999,2 54803  53.2164 219.5948 0001302  85.1379 274.9762 15.08823886 62891,6917.93,95.439,540.695,538.894,0.0
54803.0,STARLINK-5430,PAYLOAD,2024-02-08 04:30:44,15.08825501,0.0001308,53.2173,217.8107,86.867,273.2472,-6.7144e-05,-1.356e-05,0.0,0 STARLINK-5430,1 54803U 22175AX  24039.18801968 -.00001356  00000-0 -67144-4 0  9999,2 54803  53.2173 217.8107 0001308  86.8670 273.2472 15.08825501 65111,6917.925,95.438,540.695,538.885,0.0
54803.0,STARLINK-5430,PAYLOAD,2024-02-08 17:13:49,15.08834061,0.0001197,53.2157,215.4275,62.0317,298.0796,-3.0263e-05,-7.69e-06,0.0,0 STARLINK-5430,1 54803U 22175AX  24039.71793683 -.00000769  00000-0 -30263-4 0  9991,2 54803  53.2157 215.4275 0001197  62.0317 298.0796 15.08834061 63037,6917.899,95.438,540.592,538.935,0.0
54803.0,STARLINK-5430,PAYLOAD,2024-02-08 20:24:35,15.08836303,0.000116,53.2163,214.8341,78.2731,281.8391,1.6834e-05,-2e-07,0.0,0 STARLINK-5430,1 54803U 22175AX  24039.85041432 -.00000020  00000-0  16834-4 0  9991,2 54803  53.2163 214.8341 0001160  78.2731 281.8391 15.08836303 65214,6917.892,95.438,540.559,538.954,0.0
54803.0,STARLINK-5430,PAYLOAD,2024-02-09 18:39:58,15.08845915,0.0001212,53.2164,210.672,72.775,287.3374,0.00029991,4.489e-05,0.0,0 STARLINK-5430,1 54803U 22175AX  24040.77776353  .00004489  00000-0  29991-3 0  9990,2 54803  53.2164 210.6720 0001212  72.7750 287.3374 15.08845915 63194,6917.862,95.437,540.566,538.889,0.0
54803.0,STARLINK-5430,PAYLOAD,2024-02-09 20:15:21,15.08848756,0.0001231,53.2165,210.3754,77.6385,282.4745,0.00033057,4.978e-05,0.0,0 STARLINK-5430,1 54803U 22175AX  24040.84400184  .00004978  00000-0  33057-3 0  9995,2 54803  53.2165 210.3754 0001231  77.6385 282.4745 15.08848756 65363,6917.854,95.437,540.57,538.867,0.0
54803.0,STARLINK-5430,PAYLOAD,2024-02-10 20:06:09,15.08853086,0.0001214,53.2153,205.9154,80.1193,279.9936,0.00015828,2.233e-05,0.0,0 STARLINK-5430,1 54803U 22175AX  24041.83760429  .00002233  00000-0  15828-3 0  9994,2 54803  53.2153 205.9154 0001214  80.1193 279.9936 15.08853086 63353,6917.84,95.437,540.545,538.866,0.0
54803.0,STARLINK-5430,PAYLOAD,2024-02-11 10:24:37,15.08848253,0.0001358,53.2143,203.2435,68.9876,291.1261,-6.6126e-05,-1.34e-05,0.0,0 STARLINK-5430,1 54803U 22175AX  24042.43376253 -.00001340  00000-0 -66126-4 0  9997,2 54803  53.2143 203.2435 0001358  68.9876 291.1261 15.08848253 65603,6917.855,95.437,540.66,538.781,0.0
54803.0,STARLINK-5430,PAYLOAD,2024-02-11 18:21:32,15.0885046,0.0001273,53.2156,201.7555,72.3822,287.7309,-1.6998e-05,-5.58e-06,0.0,0 STARLINK-5430,1 54803U 22175AX  24042.76496201 -.00000558  00000-0 -16998-4 0  9991,2 54803  53.2156 201.7555 0001273  72.3822 287.7309 15.08850460 63491,6917.848,95.437,540.594,538.833,0.0
54803.0,STARLINK-5430,PAYLOAD,2024-02-12 16:36:56,15.08844972,0.0001586,53.2158,197.592,66.9768,293.1391,7.1604e-05,8.52e-06,0.0,0 STARLINK-5430,1 54803U 22175AX  24043.69232483  .00000852  00000-0  71604-4 0  9994,2 54803  53.2158 197.5920 0001586  66.9768 293.1391 15.08844972 63635,6917.865,95.437,540.827,538.633,0.0
54803.0,STARLINK-5430,PAYLOAD,2024-02-13 14:52:21,15.08833915,0.0001344,53.216,193.4279,86.7515,273.3631,1.4319e-05,-6e-07,0.0,0 STARLINK-5430,1 54803U 22175AX  24044.61969298 -.00000060  00000-0  14319-4 0  9990,2 54803  53.2160 193.4279 0001344  86.7515 273.3631 15.08833915 65939,6917.899,95.438,540.694,538.834,0.0
54803.0,STARLINK-5430,PAYLOAD,2024-02-13 16:27:44,15.08840227,0.000156,53.2176,193.1276,104.39,255.7265,6.1429e-06,-1.9e-06,0.0,0 STARLINK-5430,1 54803U 22175AX  24044.68592844 -.00000190  00000-0  61429-5 0  9995,2 54803  53.2176 193.1276 0001560 104.3900 255.7265 15.08840227 63787,6917.88,95.438,540.824,538.666,0.0
54803.0,STARLINK-5430,PAYLOAD,2024-02-14 14:43:07,15.08848781,0.000152,53.2178,188.9669,96.2593,263.8572,7.5586e-05,9.15e-06,0.0,0 STARLINK-5430,1 54803U 22175AX  24045.61328352  .00000915  00000-0  75586-4 0  9992,2 54803  53.2178 188.9669 0001520  96.2593 263.8572 15.08848781 66080,6917.854,95.437,540.77,538.667,0.0
54803.0,STARLINK-5430,PAYLOAD,2024-02-14 16:18:30,15.08852643,0.0001486,53.2178,188.6687,99.2068,260.9093,0.00010738,1.422e-05,0.0,0 STARLINK-5430,1 54803U 22175AX  24045.67952003  .00001422  00000-0  10738-3 0  9995,2 54803  53.2178 188.6687 0001486  99.2068 260.9093 15.08852643 63937,6917.842,95.437,540.735,538.679,0.0
54803.0,STARLINK-5430,PAYLOAD,2024-02-15 01:50:49,15.08844816,0.0001351,53.2156,186.8836,91.5758,268.5389,9.5957e-05,1.24e-05,0.0,0 STARLINK-5430,1 54803U 22175AX  24046.07696529  .00001240  00000-0  95957-4 0  9993,2 54803  53.2156 186.8836 0001351  91.5758 268.5389 15.08844816 63992,6917.866,95.437,540.665,538.796,0.0
54803.0,STARLINK-5430,PAYLOAD,2024-02-15 09:47:46,15.08834465,0.0002092,53.2167,185.3972,82.1124,278.0105,9.1516e-05,1.168e-05,0.0,0 STARLINK-5430,1 54803U 22175AX  24046.40817448  .00001168  00000-0  91516-4 0  9991,2 54803  53.2167 185.3972 0002092  82.1124 278.0105 15.08834465 64043,6917.897,95.438,541.21,538.315,0.0
54803.0,STARLINK-5430,PAYLOAD,2024-02-15 14:33:55,15.08832391,0.0001584,53.2169,184.5064,93.2772,266.8401,4.9027e-05,4.92e-06,0.0,0 STARLINK-5430,1 54803U 22175AX  24046.60689573  .00000492  00000-0  49027-4 0  9998,2 54803  53.2169 184.5064 0001584  93.2772 266.8401 15.08832391 66238,6917.904,95.438,540.864,538.673,0.0
54803.0,STARLINK-5430,PAYLOAD,2024-02-15 19:20:05,15.08836216,0.0001542,53.2168,183.6169,92.41,267.7069,2.1301e-05,5.1e-07,0.0,0 STARLINK-5430,1 54803U 22175AX  24046.80561374  .00000051  00000-0  21301-4 0  9994,2 54803  53.2168 183.6169 0001542  92.4100 267.7069 15.08836216 66266,6917.892,95.438,540.824,538.69,0.0
54803.0,STARLINK-5430,PAYLOAD,2024-02-16 14:24:42,15.08843388,0.0001496,53.2162,180.0455,85.4414,274.6749,0.00014061,1.951e-05,0.0,0 STARLINK-5430,1 54803U 22175AX  24047.60049084  .00001951  00000-0  14061-3 0  9996,2 54803  53.2162 180.0455 0001496  85.4414 274.6749 15.08843388 66380,6917.87,95.437,540.77,538.7,0.0
54803.0,STARLINK-5430,PAYLOAD,2024-02-16 19:10:51,15.0885605,0.0001416,53.215,179.1508,72.3844,287.7303,0.00038945,5.918e-05,0.0,0 STARLINK-5430,1 54803U 22175AX  24047.79920607  .00005918  00000-0  38945-3 0  9999,2 54803  53.2150 179.1508 0001416  72.3844 287.7303 15.08856050 64254,6917.831,95.437,540.676,538.717,0.0
54803.0,STARLINK-5430,PAYLOAD,2024-02-17 07:53:57,15.08842325,0.0002678,53.2153,176.7732,82.3003,277.8294,0.00022302,3.263e-05,0.0,0 STARLINK-5430,1 54803U 22175AX  24048.32913463  .00003263  00000-0  22302-3 0  9992,2 54803  53.2153 176.7732 0002678  82.3003 277.8294 15.08842325 64336,6917.873,95.437,541.591,537.886,0.0
